CCSDS_OMM_VERS = 2.0
CREATION_DATE  = 
ORIGINATOR     = 

OBJECT_NAME    = ATLAS CENTAUR 2
OBJECT_ID      = 1963-047A
CENTER_NAME    = EARTH
REF_FRAME      = TEME
TIME_SYSTEM    = UTC
MEAN_ELEMENT_THEORY = SGP/SGP4

EPOCH          = 2026-03-10T07:48:14.653440
MEAN_MOTION    = 14.12069936
ECCENTRICITY   = .0547745
INCLINATION    = 30.3510
RA_OF_ASC_NODE = 192.0905
ARG_OF_PERICENTER = 85.8862
MEAN_ANOMALY   = 280.4124

EPHEMERIS_TYPE = 0
CLASSIFICATION_TYPE = U
NORAD_CAT_ID   = 694
ELEMENT_SET_NO = 999
REV_AT_EPOCH   = 13171
BSTAR          = .23364E-3
MEAN_MOTION_DOT = .1991E-4
MEAN_MOTION_DDOT = 0

CCSDS_OMM_VERS = 2.0
CREATION_DATE  = 
ORIGINATOR     = 

OBJECT_NAME    = THOR AGENA D R/B
OBJECT_ID      = 1964-002A
CENTER_NAME    = EARTH
REF_FRAME      = TEME
TIME_SYSTEM    = UTC
MEAN_ELEMENT_THEORY = SGP/SGP4

EPOCH          = 2026-03-10T11:58:32.608128
MEAN_MOTION    = 14.34020635
ECCENTRICITY   = .0031975
INCLINATION    = 99.1225
RA_OF_ASC_NODE = 82.8805
ARG_OF_PERICENTER = 255.6851
MEAN_ANOMALY   = 104.0781

EPHEMERIS_TYPE = 0
CLASSIFICATION_TYPE = U
NORAD_CAT_ID   = 733
ELEMENT_SET_NO = 999
REV_AT_EPOCH   = 23841
BSTAR          = .1154E-3
MEAN_MOTION_DOT = .275E-5
MEAN_MOTION_DDOT = 0

CCSDS_OMM_VERS = 2.0
CREATION_DATE  = 
ORIGINATOR     = 

OBJECT_NAME    = SL-3 R/B
OBJECT_ID      = 1964-053B
CENTER_NAME    = EARTH
REF_FRAME      = TEME
TIME_SYSTEM    = UTC
MEAN_ELEMENT_THEORY = SGP/SGP4

EPOCH          = 2026-03-10T02:27:36.749952
MEAN_MOTION    = 14.61368807
ECCENTRICITY   = .00797985
INCLINATION    = 65.0787
RA_OF_ASC_NODE = 330.0273
ARG_OF_PERICENTER = 292.0936
MEAN_ANOMALY   = 67.1705

EPHEMERIS_TYPE = 0
CLASSIFICATION_TYPE = U
NORAD_CAT_ID   = 877
ELEMENT_SET_NO = 999
REV_AT_EPOCH   = 26685
BSTAR          = .91452041E-4
MEAN_MOTION_DOT = .348E-5
MEAN_MOTION_DDOT = 0

CCSDS_OMM_VERS = 2.0
CREATION_DATE  = 
ORIGINATOR     = 

OBJECT_NAME    = SL-8 R/B
OBJECT_ID      = 1967-045B
CENTER_NAME    = EARTH
REF_FRAME      = TEME
TIME_SYSTEM    = UTC
MEAN_ELEMENT_THEORY = SGP/SGP4

EPOCH          = 2026-03-10T04:44:53.866752
MEAN_MOTION    = 14.45623567
ECCENTRICITY   = .00642946
INCLINATION    = 74.0142
RA_OF_ASC_NODE = 347.1402
ARG_OF_PERICENTER = 353.2554
MEAN_ANOMALY   = 6.7731

EPHEMERIS_TYPE = 0
CLASSIFICATION_TYPE = U
NORAD_CAT_ID   = 2802
ELEMENT_SET_NO = 999
REV_AT_EPOCH   = 8909
BSTAR          = .149023E-3
MEAN_MOTION_DOT = .512E-5
MEAN_MOTION_DDOT = 0

CCSDS_OMM_VERS = 2.0
CREATION_DATE  = 
ORIGINATOR     = 

OBJECT_NAME    = SL-8 R/B
OBJECT_ID      = 1968-040B
CENTER_NAME    = EARTH
REF_FRAME      = TEME
TIME_SYSTEM    = UTC
MEAN_ELEMENT_THEORY = SGP/SGP4

EPOCH          = 2026-03-10T02:36:56.203776
MEAN_MOTION    = 15.03262822
ECCENTRICITY   = .00238458
INCLINATION    = 74.0319
RA_OF_ASC_NODE = 312.8379
ARG_OF_PERICENTER = 136.4779
MEAN_ANOMALY   = 223.8297

EPHEMERIS_TYPE = 0
CLASSIFICATION_TYPE = U
NORAD_CAT_ID   = 3230
ELEMENT_SET_NO = 999
REV_AT_EPOCH   = 9007
BSTAR          = .24399913E-3
MEAN_MOTION_DOT = .3285E-4
MEAN_MOTION_DDOT = 0

CCSDS_OMM_VERS = 2.0
CREATION_DATE  = 
ORIGINATOR     = 

OBJECT_NAME    = OAO 2
OBJECT_ID      = 1968-110A
CENTER_NAME    = EARTH
REF_FRAME      = TEME
TIME_SYSTEM    = UTC
MEAN_ELEMENT_THEORY = SGP/SGP4

EPOCH          = 2026-03-10T13:00:23.344704
MEAN_MOTION    = 14.47308737
ECCENTRICITY   = .0005951
INCLINATION    = 34.9926
RA_OF_ASC_NODE = 260.4653
ARG_OF_PERICENTER = 211.2543
MEAN_ANOMALY   = 148.7794

EPHEMERIS_TYPE = 0
CLASSIFICATION_TYPE = U
NORAD_CAT_ID   = 3597
ELEMENT_SET_NO = 999
REV_AT_EPOCH   = 1922
BSTAR          = .99435E-4
MEAN_MOTION_DOT = .35E-5
MEAN_MOTION_DDOT = 0

CCSDS_OMM_VERS = 2.0
CREATION_DATE  = 
ORIGINATOR     = 

OBJECT_NAME    = ISIS 1
OBJECT_ID      = 1969-009A
CENTER_NAME    = EARTH
REF_FRAME      = TEME
TIME_SYSTEM    = UTC
MEAN_ELEMENT_THEORY = SGP/SGP4

EPOCH          = 2026-03-10T06:01:20.536032
MEAN_MOTION    = 11.30414483
ECCENTRICITY   = .1707776
INCLINATION    = 88.4542
RA_OF_ASC_NODE = 155.2475
ARG_OF_PERICENTER = 88.0293
MEAN_ANOMALY   = 291.4510

EPHEMERIS_TYPE = 0
CLASSIFICATION_TYPE = U
NORAD_CAT_ID   = 3669
ELEMENT_SET_NO = 999
REV_AT_EPOCH   = 34859
BSTAR          = .11269E-3
MEAN_MOTION_DOT = .182E-5
MEAN_MOTION_DDOT = 0

CCSDS_OMM_VERS = 2.0
CREATION_DATE  = 
ORIGINATOR     = 

OBJECT_NAME    = SERT 2
OBJECT_ID      = 1970-009A
CENTER_NAME    = EARTH
REF_FRAME      = TEME
TIME_SYSTEM    = UTC
MEAN_ELEMENT_THEORY = SGP/SGP4

EPOCH          = 2026-03-10T10:40:22.817856
MEAN_MOTION    = 13.58729961
ECCENTRICITY   = .0005067
INCLINATION    = 99.2757
RA_OF_ASC_NODE = 12.4969
ARG_OF_PERICENTER = 153.9851
MEAN_ANOMALY   = 315.1987

EPHEMERIS_TYPE = 0
CLASSIFICATION_TYPE = U
NORAD_CAT_ID   = 4327
ELEMENT_SET_NO = 999
REV_AT_EPOCH   = 77999
BSTAR          = .85626E-4
MEAN_MOTION_DOT = .21E-6
MEAN_MOTION_DDOT = 0

CCSDS_OMM_VERS = 2.0
CREATION_DATE  = 
ORIGINATOR     = 

OBJECT_NAME    = SL-3 R/B
OBJECT_ID      = 1971-028B
CENTER_NAME    = EARTH
REF_FRAME      = TEME
TIME_SYSTEM    = UTC
MEAN_ELEMENT_THEORY = SGP/SGP4

EPOCH          = 2026-03-10T11:44:55.662432
MEAN_MOTION    = 15.61198899
ECCENTRICITY   = .0013327
INCLINATION    = 81.2358
RA_OF_ASC_NODE = 51.0412
ARG_OF_PERICENTER = 281.8353
MEAN_ANOMALY   = 78.1405

EPHEMERIS_TYPE = 0
CLASSIFICATION_TYPE = U
NORAD_CAT_ID   = 5118
ELEMENT_SET_NO = 999
REV_AT_EPOCH   = 98879
BSTAR          = .54697E-3
MEAN_MOTION_DOT = .46651E-3
MEAN_MOTION_DDOT = 0

CCSDS_OMM_VERS = 2.0
CREATION_DATE  = 
ORIGINATOR     = 

OBJECT_NAME    = ASTEX 1
OBJECT_ID      = 1971-089A
CENTER_NAME    = EARTH
REF_FRAME      = TEME
TIME_SYSTEM    = UTC
MEAN_ELEMENT_THEORY = SGP/SGP4

EPOCH          = 2026-03-10T05:40:02.067456
MEAN_MOTION    = 14.50770502
ECCENTRICITY   = .0017818
INCLINATION    = 92.7121
RA_OF_ASC_NODE = 151.9365
ARG_OF_PERICENTER = 84.2950
MEAN_ANOMALY   = 276.0287

EPHEMERIS_TYPE = 0
CLASSIFICATION_TYPE = U
NORAD_CAT_ID   = 5560
ELEMENT_SET_NO = 999
REV_AT_EPOCH   = 86238
BSTAR          = .15096E-3
MEAN_MOTION_DOT = .594E-5
MEAN_MOTION_DDOT = 0

CCSDS_OMM_VERS = 2.0
CREATION_DATE  = 
ORIGINATOR     = 

OBJECT_NAME    = SL-8 R/B
OBJECT_ID      = 1971-119B
CENTER_NAME    = EARTH
REF_FRAME      = TEME
TIME_SYSTEM    = UTC
MEAN_ELEMENT_THEORY = SGP/SGP4

EPOCH          = 2026-03-10T10:08:49.829280
MEAN_MOTION    = 14.37881441
ECCENTRICITY   = .0548547
INCLINATION    = 73.8872
RA_OF_ASC_NODE = 174.3484
ARG_OF_PERICENTER = 140.8294
MEAN_ANOMALY   = 223.3941

EPHEMERIS_TYPE = 0
CLASSIFICATION_TYPE = U
NORAD_CAT_ID   = 5730
ELEMENT_SET_NO = 999
REV_AT_EPOCH   = 65559
BSTAR          = .7283E-3
MEAN_MOTION_DOT = .13986E-3
MEAN_MOTION_DDOT = 0

CCSDS_OMM_VERS = 2.0
CREATION_DATE  = 
ORIGINATOR     = 

OBJECT_NAME    = OAO 3 (COPERNICUS)
OBJECT_ID      = 1972-065A
CENTER_NAME    = EARTH
REF_FRAME      = TEME
TIME_SYSTEM    = UTC
MEAN_ELEMENT_THEORY = SGP/SGP4

EPOCH          = 2026-03-10T00:37:01.242048
MEAN_MOTION    = 14.59998509
ECCENTRICITY   = .0006471
INCLINATION    = 35.0057
RA_OF_ASC_NODE = 295.4022
ARG_OF_PERICENTER = 170.0360
MEAN_ANOMALY   = 335.9029

EPHEMERIS_TYPE = 0
CLASSIFICATION_TYPE = U
NORAD_CAT_ID   = 6153
ELEMENT_SET_NO = 999
REV_AT_EPOCH   = 84624
BSTAR          = .98288493E-4
MEAN_MOTION_DOT = .458E-5
MEAN_MOTION_DDOT = 0

