ATLAS CENTAUR 2         
1 00694U 63047A   26069.32516960  .00001991  00000+0  23364-3 0  9994
2 00694  30.3510 192.0905 0547745  85.8862 280.4124 14.12069936131713
THOR AGENA D R/B        
1 00733U 64002A   26069.49898852  .00000275  00000+0  11540-3 0  9998
2 00733  99.1225  82.8805 0031975 255.6851 104.0781 14.34020635238418
SL-3 R/B                
1 00877U 64053B   26069.10250868  .00000348  00000+0  91452-4 0  9992
2 00877  65.0787 330.0273 0079798 292.0936  67.1705 14.61368807266853
SL-8 R/B                
1 02802U 67045B   26069.19784568  .00000512  00000+0  14902-3 0  9991
2 02802  74.0142 347.1402 0064294 353.2554   6.7731 14.45623567 89098
SL-8 R/B                
1 03230U 68040B   26069.10898384  .00003285  00000+0  24400-3 0  9990
2 03230  74.0319 312.8379 0023845 136.4779 223.8297 15.03262822 90076
OAO 2                   
1 03597U 68110A   26069.54193686  .00000350  00000+0  99435-4 0  9996
2 03597  34.9926 260.4653 0005951 211.2543 148.7794 14.47308737 19221
ISIS 1                  
1 03669U 69009A   26069.25093213  .00000182  00000+0  11269-3 0  9998
2 03669  88.4542 155.2475 1707776  88.0293 291.4510 11.30414483348591
SERT 2                  
1 04327U 70009A   26069.44470854  .00000021  00000+0  85626-4 0  9994
2 04327  99.2757  12.4969 0005067 153.9851 315.1987 13.58729961779994
SL-3 R/B                
1 05118U 71028B   26069.48953313  .00046651  00000+0  54697-3 0  9997
2 05118  81.2358  51.0412 0013327 281.8353  78.1405 15.61198899988796
ASTEX 1                 
1 05560U 71089A   26069.23613504  .00000594  00000+0  15096-3 0  9999
2 05560  92.7121 151.9365 0017818  84.2950 276.0287 14.50770502862383
SL-8 R/B                
1 05730U 71119B   26069.42279895  .00013986  00000+0  72830-3 0  9992
2 05730  73.8872 174.3484 0548547 140.8294 223.3941 14.37881441655599
OAO 3 (COPERNICUS)      
1 06153U 72065A   26069.02570882  .00000458  00000+0  98288-4 0  9995
2 06153  35.0057 295.4022 0006471 170.0360 335.9029 14.59998509846240
